NORAD_CAT_ID,OBJECT_NAME,OBJECT_TYPE,EPOCH,MEAN_MOTION,ECCENTRICITY,INCLINATION,RA_OF_ASC_NODE,ARG_OF_PERICENTER,MEAN_ANOMALY,BSTAR,MEAN_MOTION_DOT,MEAN_MOTION_DDOT,TLE_LINE0,TLE_LINE1,TLE_LINE2,SEMIMAJOR_AXIS,PERIOD,APOGEE,PERIGEE,DECAYED
53789.0,STARLINK-4666,PAYLOAD,2022-12-22 20:54:31,15.08842411,0.0002023,53.218,138.8707,56.1956,303.9229,3.8822e-05,3.3e-06,0.0,0 STARLINK-4666,1 53789U 22111S   22356.87119897  .00000330  00000-0  38822-4 0  9990,2 53789  53.2180 138.8707 0002023  56.1956 303.9229 15.08842411 15835,6917.873000000001,95.437,541.138,538.339,0.0
53789.0,STARLINK-4666,PAYLOAD,2022-12-23 09:37:37,15.08838194,0.0002064,53.218,136.4934,53.2539,306.8642,-3.7038e-05,-8.78e-06,0.0,0 STARLINK-4666,1 53789U 22111S   22357.40112354 -.00000878  00000-0 -37038-4 0  9998,2 53789  53.2180 136.4934 0002064  53.2539 306.8642 15.08838194 15914,6917.886,95.438,541.179,538.323,0.0
53789.0,STARLINK-4666,PAYLOAD,2022-12-23 15:59:09,15.08841199,0.0002066,53.2185,135.3036,54.7971,305.3214,-6.5695e-05,-1.334e-05,0.0,0 STARLINK-4666,1 53789U 22111S   22357.66608286 -.00001334  00000-0 -65695-4 0  9998,2 53789  53.2185 135.3036 0002066  54.7971 305.3214 15.08841199 16759,6917.877,95.437,541.1709999999998,538.312,0.0
53789.0,STARLINK-4666,PAYLOAD,2022-12-23 20:45:18,15.0884919,0.0001792,53.2183,134.4052,72.4808,287.638,1.1642e-05,-1.03e-06,0.0,0 STARLINK-4666,1 53789U 22111S   22357.86479232 -.00000103  00000-0  11642-4 0  9992,2 53789  53.2183 134.4052 0001792  72.4808 287.6380 15.08849190 15985,6917.852,95.437,540.957,538.4780000000002,0.0
53789.0,STARLINK-4666,PAYLOAD,2022-12-24 20:36:05,15.08832552,0.0001991,53.2187,129.9497,50.224,309.8927,-7.3271e-05,-1.454e-05,0.0,0 STARLINK-4666,1 53789U 22111S   22358.85839930 -.00001454  00000-0 -73271-4 0  9994,2 53789  53.2187 129.9497 0001991  50.2240 309.8927 15.08832552 16930,6917.903,95.438,541.146,538.391,0.0
53789.0,STARLINK-4666,PAYLOAD,2022-12-25 09:19:10,15.08834491,0.0001885,53.2208,127.5708,42.1035,318.0102,-7.1926e-05,-1.433e-05,0.0,0 STARLINK-4666,1 53789U 22111S   22359.38831903 -.00001433  00000-0 -71926-4 0  9997,2 53789  53.2208 127.5708 0001885  42.1035 318.0102 15.08834491 17018,6917.897,95.438,541.066,538.4580000000002,0.0
53789.0,STARLINK-4666,PAYLOAD,2022-12-25 15:40:42,15.08837715,0.0001889,53.2186,126.3822,45.8628,314.2519,3.9853e-05,3.46e-06,0.0,0 STARLINK-4666,1 53789U 22111S   22359.65327395  .00000346  00000-0  39853-4 0  9995,2 53789  53.2186 126.3822 0001889  45.8628 314.2519 15.08837715 16256,6917.887,95.438,541.059,538.446,0.0
53789.0,STARLINK-4666,PAYLOAD,2022-12-25 20:26:53,15.08826923,0.0001886,53.2197,125.4887,58.2168,301.9008,-7.125399999999999e-05,-1.422e-05,0.0,0 STARLINK-4666,1 53789U 22111S   22359.85200930 -.00001422  00000-0 -71254-4 0  9991,2 53789  53.2197 125.4887 0001886  58.2168 301.9008 15.08826923 17080,6917.92,95.438,541.09,538.481,0.0
53789.0,STARLINK-4666,PAYLOAD,2022-12-26 01:13:02,15.08833841,0.0002019,53.2181,124.5979,47.5215,312.5947,-0.00012597,-2.292e-05,0.0,0 STARLINK-4666,1 53789U 22111S   22360.05072372 -.00002292  00000-0 -12597-3 0  9992,2 53789  53.2181 124.5979 0002019  47.5215 312.5947 15.08833841 16310,6917.899,95.438,541.161,538.367,0.0
53789.0,STARLINK-4666,PAYLOAD,2022-12-26 15:31:30,15.08830911,0.0001993,53.2176,121.9217,44.6961,315.4192,8.2153e-05,1.019e-05,0.0,0 STARLINK-4666,1 53789U 22111S   22360.64687777  .00001019  00000-0  82153-4 0  9998,2 53789  53.2176 121.9217 0001993  44.6961 315.4192 15.08830911 16405,6917.908,95.438,541.1519999999998,538.394,0.0
53789.0,STARLINK-4666,PAYLOAD,2022-12-26 18:42:16,15.08835012,0.000207,53.2191,121.3263,39.877,320.2374,7.0109e-05,8.28e-06,0.0,0 STARLINK-4666,1 53789U 22111S   22360.77935663  .00000828  00000-0  70109-4 0  9997,2 53789  53.2191 121.3263 0002070  39.8770 320.2374 15.08835012 17222,6917.896,95.438,541.193,538.3290000000002,0.0
53789.0,STARLINK-4666,PAYLOAD,2022-12-28 10:26:54,15.08835996,0.0001720999999999,53.2186,113.8885,44.1804,315.9325,2.7335e-05,1.47e-06,0.0,0 STARLINK-4666,1 53789U 22111S   22362.43535329  .00000147  00000-0  27335-4 0  9994,2 53789  53.2186 113.8885 0001721  44.1804 315.9325 15.08835996 16677,6917.893,95.438,540.948,538.567,0.0
53789.0,STARLINK-4666,PAYLOAD,2022-12-29 00:45:23,15.08833699,0.0001602,53.2203,111.2184,23.4148,336.6917,-0.00011132,-2.059e-05,0.0,0 STARLINK-4666,1 53789U 22111S   22363.03151948 -.00002059  00000-0 -11132-3 0  9995,2 53789  53.2203 111.2184 0001602  23.4148 336.6917 15.08833699 16765,6917.9,95.438,540.873,538.656,0.0
53789.0,STARLINK-4666,PAYLOAD,2022-12-29 13:28:29,15.08828612,0.000188,53.2187,108.8376,42.0955,318.0181,-0.00016161,-2.858e-05,0.0,0 STARLINK-4666,1 53789U 22111S   22363.56144840 -.00002858  00000-0 -16161-3 0  9990,2 53789  53.2187 108.8376 0001880  42.0955 318.0181 15.08828612 17646,6917.915,95.438,541.081,538.48,0.0
53789.0,STARLINK-4666,PAYLOAD,2022-12-30 13:19:14,15.08845282,0.0001933,53.2189,104.3777,34.83,325.2818,0.00024852,3.67e-05,0.0,0 STARLINK-4666,1 53789U 22111S   22364.55502612  .00003670  00000-0  24852-3 0  9992,2 53789  53.2189 104.3777 0001933  34.8300 325.2818 15.08845282 16992,6917.864000000001,95.437,541.066,538.3919999999998,0.0
53789.0,STARLINK-4666,PAYLOAD,2022-12-31 13:10:01,15.08836187,0.0002065999999999,53.219,99.9175,39.6698,320.4445,0.00011305,1.511e-05,0.0,0 STARLINK-4666,1 53789U 22111S   22365.54863248  .00001511  00000-0  11305-3 0  9998,2 53789  53.2190  99.9175 0002066  39.6698 320.4445 15.08836187 17141,6917.892,95.438,541.186,538.328,0.0
53789.0,STARLINK-4666,PAYLOAD,2022-12-31 17:56:11,15.08838799,0.0002099,53.2195,99.0254,36.4986,323.6149,8.334799999999999e-05,1.038e-05,0.0,0 STARLINK-4666,1 53789U 22111S   22365.74735144  .00001038  00000-0  83348-4 0  9994,2 53789  53.2195  99.0254 0002099  36.4986 323.6149 15.08838799 17974,6917.884,95.438,541.201,538.297,0.0
53789.0,STARLINK-4666,PAYLOAD,2023-01-01 06:39:17,15.08829868,0.0002198,53.2204,96.6472,33.088,327.025,-0.0001200999999999,-2.199e-05,0.0,0 STARLINK-4666,1 53789U 22111S   23001.27728572 -.00002199  00000-0 -12010-3 0  9995,2 53789  53.2204  96.6472 0002198  33.0880 327.0250 15.08829868 17255,6917.911,95.438,541.297,538.256,0.0
53789.0,STARLINK-4666,PAYLOAD,2023-01-01 13:00:50,15.08830694,0.000215,53.2195,95.4582,34.7861,325.3271,-0.00025196,-4.295e-05,0.0,0 STARLINK-4666,1 53789U 22111S   23001.54225161 -.00004295  00000-0 -25196-3 0  9999,2 53789  53.2195  95.4582 0002150  34.7861 325.3271 15.08830694 18094,6917.909000000002,95.438,541.261,538.286,0.0
53789.0,STARLINK-4666,PAYLOAD,2023-01-01 17:46:59,15.08833944,0.0002154,53.2197,94.5655,35.6146,324.499,-0.00021089,-3.643e-05,0.0,0 STARLINK-4666,1 53789U 22111S   23001.74096888 -.00003643  00000-0 -21089-3 0  9996,2 53789  53.2197  94.5655 0002154  35.6146 324.4990 15.08833944 18120,6917.899,95.438,541.254,538.274,0.0
53789.0,STARLINK-4666,PAYLOAD,2023-01-01 22:33:08,15.08840022,0.0002194,53.2195,93.6734,34.7591,325.3544,-0.00016205,-2.866e-05,0.0,0 STARLINK-4666,1 53789U 22111S   23001.93968376 -.00002866  00000-0 -16205-3 0  9997,2 53789  53.2195  93.6734 0002194  34.7591 325.3544 15.08840022 17358,6917.88,95.438,541.263,538.2280000000002,0.0
53789.0,STARLINK-4666,PAYLOAD,2023-01-02 12:51:36,15.08839792,0.0002133,53.2204,90.9967,36.4191,323.6946,-0.00010297,-1.927e-05,0.0,0 STARLINK-4666,1 53789U 22111S   23002.53584241 -.00001927  00000-0 -10297-3 0  9991,2 53789  53.2204  90.9967 0002133  36.4191 323.6946 15.08839792 18243,6917.880999999999,95.438,541.222,538.27,0.0
53789.0,STARLINK-4666,PAYLOAD,2023-01-02 17:37:46,15.08832898,0.0002203,53.2202,90.105,36.1922,323.9219,-1.1947e-05,-4.78e-06,0.0,0 STARLINK-4666,1 53789U 22111S   23002.73456449 -.00000478  00000-0 -11947-4 0  9995,2 53789  53.2202  90.1050 0002203  36.1922 323.9219 15.08832898 18272,6917.901999999999,95.438,541.2909999999998,538.243,0.0
53789.0,STARLINK-4666,PAYLOAD,2023-01-03 12:42:24,15.08822535,0.0002273,53.2202,86.537,34.3846,325.7293,0.00011653,1.566e-05,0.0,0 STARLINK-4666,1 53789U 22111S   23003.52945295  .00001566  00000-0  11653-3 0  9995,2 53789  53.2202  86.5370 0002273  34.3846 325.7293 15.08822535 17591,6917.934,95.439,541.371,538.226,0.0
53789.0,STARLINK-4666,PAYLOAD,2023-01-04 10:57:48,15.08840607,0.0002298,53.2195,82.3746,34.2764,325.8376,0.00011534,1.548e-05,0.0,0 STARLINK-4666,1 53789U 22111S   23004.45680772  .00001548  00000-0  11534-3 0  9992,2 53789  53.2195  82.3746 0002298  34.2764 325.8376 15.08840607 17737,6917.879,95.438,541.3330000000002,538.154,0.0
53789.0,STARLINK-4666,PAYLOAD,2023-01-04 12:33:11,15.08842733,0.0002407,53.2195,82.0772,32.7338,327.3803,0.00013081,1.794e-05,0.0,0 STARLINK-4666,1 53789U 22111S   23004.52304611  .00001794  00000-0  13081-3 0  9997,2 53789  53.2195  82.0772 0002407  32.7338 327.3803 15.08842733 18549,6917.871999999999,95.437,541.4019999999998,538.072,0.0
53789.0,STARLINK-4666,PAYLOAD,2023-01-05 06:02:24,15.08852285,0.0002005,53.2198,78.8067,22.5792,337.5289,0.0001357,1.873e-05,0.0,0 STARLINK-4666,1 53789U 22111S   23005.25167488  .00001873  00000-0  13570-3 0  9998,2 53789  53.2198  78.8067 0002005  22.5792 337.5289 15.08852285 17854,6917.843000000003,95.437,541.095,538.321,0.0
53789.0,STARLINK-4666,PAYLOAD,2023-01-05 10:48:33,15.0885557,0.0002144,53.2201,77.9144,27.0135,333.0968,0.00016792,2.386e-05,0.0,0 STARLINK-4666,1 53789U 22111S   23005.45039005  .00002386  00000-0  16792-3 0  9992,2 53789  53.2201  77.9144 0002144  27.0135 333.0968 15.08855570 18687,6917.833000000001,95.437,541.181,538.215,0.0
53789.0,STARLINK-4666,PAYLOAD,2023-01-06 10:39:23,15.0882712,0.0002554,53.2216,73.4511,28.374,331.7391,-0.00020251,-3.509e-05,0.0,0 STARLINK-4666,1 53789U 22111S   23006.44401762 -.00003509  00000-0 -20251-3 0  9990,2 53789  53.2216  73.4511 0002554  28.3740 331.7391 15.08827120 18037,6917.92,95.438,541.552,538.018,0.0
